[{"OBJECT_NAME":"HUANJING 1A (HJ-1A)","OBJECT_ID":"2008-041A","EPOCH":"2026-03-09T23:20:18.926592","MEAN_MOTION":14.83722198,"ECCENTRICITY":0.00205789,"INCLINATION":97.6638,"RA_OF_ASC_NODE":58.6973,"ARG_OF_PERICENTER":102.9318,"MEAN_ANOMALY":257.4197,"EPHEMERIS_TYPE":0,"CLASSIFICATION_TYPE":"U","NORAD_CAT_ID":33320,"ELEMENT_SET_NO":999,"REV_AT_EPOCH":94369,"BSTAR":0.0003142853,"MEAN_MOTION_DOT":2.557e-5,"MEAN_MOTION_DDOT":0},{"OBJECT_NAME":"PEGASUS R\/B","OBJECT_ID":"2003-036B","EPOCH":"2026-03-09T21:55:50.588544","MEAN_MOTION":14.87468766,"ECCENTRICITY":0.00053472,"INCLINATION":73.9243,"RA_OF_ASC_NODE":293.9037,"ARG_OF_PERICENTER":60.7262,"MEAN_ANOMALY":299.4452,"EPHEMERIS_TYPE":0,"CLASSIFICATION_TYPE":"U","NORAD_CAT_ID":27859,"ELEMENT_SET_NO":999,"REV_AT_EPOCH":21902,"BSTAR":0.00018489563,"MEAN_MOTION_DOT":1.638e-5,"MEAN_MOTION_DDOT":0}]
